[Satellite]
VERSION=1.1
NAME=KITSAT 1 (KO-23)
NICKNAME=KO-23
TLE1=1 22077U 92052B   11058.59124434 -.00000037  00000-0  10000-3 0  1361
TLE2=2 22077  66.0855 107.3033 0010106 317.2765  42.7467 12.86456430871326
